<?xml version="1.0" encoding="UTF-8"?>
<ndm xmlns:xsi="http://www.w3.org/2001/XMLSchema-instance" xsi:noNamespaceSchemaLocation="https://sanaregistry.org/r/ndmxml_unqualified/ndmxml-2.0.0-master-2.0.xsd">
<omm id="CCSDS_OMM_VERS" version="2.0">
<header><CREATION_DATE/><ORIGINATOR/></header><body><segment><metadata><OBJECT_NAME>ORBCOMM FM33</OBJECT_NAME><OBJECT_ID>1999-065D</OBJECT_ID><CENTER_NAME>EARTH</CENTER_NAME><REF_FRAME>TEME</REF_FRAME><TIME_SYSTEM>UTC</TIME_SYSTEM><MEAN_ELEMENT_THEORY>SGP4</MEAN_ELEMENT_THEORY></metadata><data><meanElements><EPOCH>2024-09-12T10:49:50.510784</EPOCH><MEAN_MOTION>14.38345283</MEAN_MOTION><ECCENTRICITY>.0006662</ECCENTRICITY><INCLINATION>45.0269</INCLINATION><RA_OF_ASC_NODE>237.9333</RA_OF_ASC_NODE><ARG_OF_PERICENTER>96.4056</ARG_OF_PERICENTER><MEAN_ANOMALY>263.7552</MEAN_ANOMALY></meanElements><tleParameters><EPHEMERIS_TYPE>0</EPHEMERIS_TYPE><CLASSIFICATION_TYPE>U</CLASSIFICATION_TYPE><NORAD_CAT_ID>25983</NORAD_CAT_ID><ELEMENT_SET_NO>999</ELEMENT_SET_NO><REV_AT_EPOCH>29605</REV_AT_EPOCH><BSTAR>.28067E-2</BSTAR><MEAN_MOTION_DOT>.8498E-4</MEAN_MOTION_DOT><MEAN_MOTION_DDOT>0</MEAN_MOTION_DDOT></tleParameters></data></segment></body></omm>
<omm id="CCSDS_OMM_VERS" version="2.0">
<header><CREATION_DATE/><ORIGINATOR/></header><body><segment><metadata><OBJECT_NAME>ORBCOMM FM36</OBJECT_NAME><OBJECT_ID>1999-065E</OBJECT_ID><CENTER_NAME>EARTH</CENTER_NAME><REF_FRAME>TEME</REF_FRAME><TIME_SYSTEM>UTC</TIME_SYSTEM><MEAN_ELEMENT_THEORY>SGP4</MEAN_ELEMENT_THEORY></metadata><data><meanElements><EPOCH>2024-09-12T14:27:30.229344</EPOCH><MEAN_MOTION>14.36335229</MEAN_MOTION><ECCENTRICITY>.0004214</ECCENTRICITY><INCLINATION>45.0403</INCLINATION><RA_OF_ASC_NODE>324.8271</RA_OF_ASC_NODE><ARG_OF_PERICENTER>309.2393</ARG_OF_PERICENTER><MEAN_ANOMALY>50.8080</MEAN_ANOMALY></meanElements><tleParameters><EPHEMERIS_TYPE>0</EPHEMERIS_TYPE><CLASSIFICATION_TYPE>U</CLASSIFICATION_TYPE><NORAD_CAT_ID>25984</NORAD_CAT_ID><ELEMENT_SET_NO>999</ELEMENT_SET_NO><REV_AT_EPOCH>29448</REV_AT_EPOCH><BSTAR>.36947E-2</BSTAR><MEAN_MOTION_DOT>.10782E-3</MEAN_MOTION_DOT><MEAN_MOTION_DDOT>0</MEAN_MOTION_DDOT></tleParameters></data></segment></body></omm>
<omm id="CCSDS_OMM_VERS" version="2.0">
<header><CREATION_DATE/><ORIGINATOR/></header><body><segment><metadata><OBJECT_NAME>ORBCOMM FM35</OBJECT_NAME><OBJECT_ID>1999-065F</OBJECT_ID><CENTER_NAME>EARTH</CENTER_NAME><REF_FRAME>TEME</REF_FRAME><TIME_SYSTEM>UTC</TIME_SYSTEM><MEAN_ELEMENT_THEORY>SGP4</MEAN_ELEMENT_THEORY></metadata><data><meanElements><EPOCH>2024-09-12T13:10:49.675584</EPOCH><MEAN_MOTION>14.35713575</MEAN_MOTION><ECCENTRICITY>.0001286</ECCENTRICITY><INCLINATION>45.0404</INCLINATION><RA_OF_ASC_NODE>328.2117</RA_OF_ASC_NODE><ARG_OF_PERICENTER>110.2440</ARG_OF_PERICENTER><MEAN_ANOMALY>249.8546</MEAN_ANOMALY></meanElements><tleParameters><EPHEMERIS_TYPE>0</EPHEMERIS_TYPE><CLASSIFICATION_TYPE>U</CLASSIFICATION_TYPE><NORAD_CAT_ID>25985</NORAD_CAT_ID><ELEMENT_SET_NO>999</ELEMENT_SET_NO><REV_AT_EPOCH>29486</REV_AT_EPOCH><BSTAR>.27673E-2</BSTAR><MEAN_MOTION_DOT>.7934E-4</MEAN_MOTION_DOT><MEAN_MOTION_DDOT>0</MEAN_MOTION_DDOT></tleParameters></data></segment></body></omm>
<omm id="CCSDS_OMM_VERS" version="2.0">
<header><CREATION_DATE/><ORIGINATOR/></header><body><segment><metadata><OBJECT_NAME>ORBCOMM FM34</OBJECT_NAME><OBJECT_ID>1999-065G</OBJECT_ID><CENTER_NAME>EARTH</CENTER_NAME><REF_FRAME>TEME</REF_FRAME><TIME_SYSTEM>UTC</TIME_SYSTEM><MEAN_ELEMENT_THEORY>SGP4</MEAN_ELEMENT_THEORY></metadata><data><meanElements><EPOCH>2024-09-12T14:11:06.561888</EPOCH><MEAN_MOTION>14.35708795</MEAN_MOTION><ECCENTRICITY>.0002483</ECCENTRICITY><INCLINATION>45.0400</INCLINATION><RA_OF_ASC_NODE>328.5644</RA_OF_ASC_NODE><ARG_OF_PERICENTER>353.5688</ARG_OF_PERICENTER><MEAN_ANOMALY>6.5128</MEAN_ANOMALY></meanElements><tleParameters><EPHEMERIS_TYPE>0</EPHEMERIS_TYPE><CLASSIFICATION_TYPE>U</CLASSIFICATION_TYPE><NORAD_CAT_ID>25986</NORAD_CAT_ID><ELEMENT_SET_NO>999</ELEMENT_SET_NO><REV_AT_EPOCH>29498</REV_AT_EPOCH><BSTAR>.26573E-2</BSTAR><MEAN_MOTION_DOT>.7613E-4</MEAN_MOTION_DOT><MEAN_MOTION_DDOT>0</MEAN_MOTION_DDOT></tleParameters></data></segment></body></omm>
<omm id="CCSDS_OMM_VERS" version="2.0">
<header><CREATION_DATE/><ORIGINATOR/></header><body><segment><metadata><OBJECT_NAME>ORBCOMM FM38</OBJECT_NAME><OBJECT_ID>2008-031A</OBJECT_ID><CENTER_NAME>EARTH</CENTER_NAME><REF_FRAME>TEME</REF_FRAME><TIME_SYSTEM>UTC</TIME_SYSTEM><MEAN_ELEMENT_THEORY>SGP4</MEAN_ELEMENT_THEORY></metadata><data><meanElements><EPOCH>2024-09-12T05:30:15.069312</EPOCH><MEAN_MOTION>14.78622430</MEAN_MOTION><ECCENTRICITY>.0005398</ECCENTRICITY><INCLINATION>48.4391</INCLINATION><RA_OF_ASC_NODE>197.5286</RA_OF_ASC_NODE><ARG_OF_PERICENTER>287.7459</ARG_OF_PERICENTER><MEAN_ANOMALY>72.2866</MEAN_ANOMALY></meanElements><tleParameters><EPHEMERIS_TYPE>0</EPHEMERIS_TYPE><CLASSIFICATION_TYPE>U</CLASSIFICATION_TYPE><NORAD_CAT_ID>33060</NORAD_CAT_ID><ELEMENT_SET_NO>999</ELEMENT_SET_NO><REV_AT_EPOCH>87357</REV_AT_EPOCH><BSTAR>.1021E-2</BSTAR><MEAN_MOTION_DOT>.7356E-4</MEAN_MOTION_DOT><MEAN_MOTION_DDOT>0</MEAN_MOTION_DDOT></tleParameters></data></segment></body></omm>
<omm id="CCSDS_OMM_VERS" version="2.0">
<header><CREATION_DATE/><ORIGINATOR/></header><body><segment><metadata><OBJECT_NAME>ORBCOMM FM41</OBJECT_NAME><OBJECT_ID>2008-031B</OBJECT_ID><CENTER_NAME>EARTH</CENTER_NAME><REF_FRAME>TEME</REF_FRAME><TIME_SYSTEM>UTC</TIME_SYSTEM><MEAN_ELEMENT_THEORY>SGP4</MEAN_ELEMENT_THEORY></metadata><data><meanElements><EPOCH>2024-09-12T14:25:02.544096</EPOCH><MEAN_MOTION>14.78347670</MEAN_MOTION><ECCENTRICITY>.0004573</ECCENTRICITY><INCLINATION>48.4426</INCLINATION><RA_OF_ASC_NODE>202.6874</RA_OF_ASC_NODE><ARG_OF_PERICENTER>274.9857</ARG_OF_PERICENTER><MEAN_ANOMALY>255.0545</MEAN_ANOMALY></meanElements><tleParameters><EPHEMERIS_TYPE>0</EPHEMERIS_TYPE><CLASSIFICATION_TYPE>U</CLASSIFICATION_TYPE><NORAD_CAT_ID>33061</NORAD_CAT_ID><ELEMENT_SET_NO>999</ELEMENT_SET_NO><REV_AT_EPOCH>87312</REV_AT_EPOCH><BSTAR>.19465E-2</BSTAR><MEAN_MOTION_DOT>.14136E-3</MEAN_MOTION_DOT><MEAN_MOTION_DDOT>0</MEAN_MOTION_DDOT></tleParameters></data></segment></body></omm>
<omm id="CCSDS_OMM_VERS" version="2.0">
<header><CREATION_DATE/><ORIGINATOR/></header><body><segment><metadata><OBJECT_NAME>ORBCOMM FM29</OBJECT_NAME><OBJECT_ID>2008-031C</OBJECT_ID><CENTER_NAME>EARTH</CENTER_NAME><REF_FRAME>TEME</REF_FRAME><TIME_SYSTEM>UTC</TIME_SYSTEM><MEAN_ELEMENT_THEORY>SGP4</MEAN_ELEMENT_THEORY></metadata><data><meanElements><EPOCH>2024-09-12T14:14:54.264768</EPOCH><MEAN_MOTION>14.78313670</MEAN_MOTION><ECCENTRICITY>.0006394</ECCENTRICITY><INCLINATION>48.4376</INCLINATION><RA_OF_ASC_NODE>210.7487</RA_OF_ASC_NODE><ARG_OF_PERICENTER>273.6599</ARG_OF_PERICENTER><MEAN_ANOMALY>257.5762</MEAN_ANOMALY></meanElements><tleParameters><EPHEMERIS_TYPE>0</EPHEMERIS_TYPE><CLASSIFICATION_TYPE>U</CLASSIFICATION_TYPE><NORAD_CAT_ID>33062</NORAD_CAT_ID><ELEMENT_SET_NO>999</ELEMENT_SET_NO><REV_AT_EPOCH>87303</REV_AT_EPOCH><BSTAR>.2091E-2</BSTAR><MEAN_MOTION_DOT>.15194E-3</MEAN_MOTION_DOT><MEAN_MOTION_DDOT>0</MEAN_MOTION_DDOT></tleParameters></data></segment></body></omm>
<omm id="CCSDS_OMM_VERS" version="2.0">
<header><CREATION_DATE/><ORIGINATOR/></header><body><segment><metadata><OBJECT_NAME>ORBCOMM FM39</OBJECT_NAME><OBJECT_ID>2008-031D</OBJECT_ID><CENTER_NAME>EARTH</CENTER_NAME><REF_FRAME>TEME</REF_FRAME><TIME_SYSTEM>UTC</TIME_SYSTEM><MEAN_ELEMENT_THEORY>SGP4</MEAN_ELEMENT_THEORY></metadata><data><meanElements><EPOCH>2024-09-12T08:18:13.104864</EPOCH><MEAN_MOTION>14.77165005</MEAN_MOTION><ECCENTRICITY>.0007328</ECCENTRICITY><INCLINATION>48.4390</INCLINATION><RA_OF_ASC_NODE>233.4395</RA_OF_ASC_NODE><ARG_OF_PERICENTER>248.8314</ARG_OF_PERICENTER><MEAN_ANOMALY>111.1817</MEAN_ANOMALY></meanElements><tleParameters><EPHEMERIS_TYPE>0</EPHEMERIS_TYPE><CLASSIFICATION_TYPE>U</CLASSIFICATION_TYPE><NORAD_CAT_ID>33063</NORAD_CAT_ID><ELEMENT_SET_NO>999</ELEMENT_SET_NO><REV_AT_EPOCH>87268</REV_AT_EPOCH><BSTAR>.92569E-3</BSTAR><MEAN_MOTION_DOT>.642E-4</MEAN_MOTION_DOT><MEAN_MOTION_DDOT>0</MEAN_MOTION_DDOT></tleParameters></data></segment></body></omm>

</ndm>
