ORBCOMM FM33            
1 25983U 99065D   24256.45127906  .00008498  00000+0  28067-2 0  9992
2 25983  45.0269 237.9333 0006662  96.4056 263.7552 14.38345283296058
ORBCOMM FM36            
1 25984U 99065E   24256.60243321  .00010782  00000+0  36947-2 0  9995
2 25984  45.0403 324.8271 0004214 309.2393  50.8080 14.36335229294489
ORBCOMM FM35            
1 25985U 99065F   24256.54918606  .00007934  00000+0  27673-2 0  9995
2 25985  45.0404 328.2117 0001286 110.2440 249.8546 14.35713575294869
ORBCOMM FM34            
1 25986U 99065G   24256.59104817  .00007613  00000+0  26573-2 0  9994
2 25986  45.0400 328.5644 0002483 353.5688   6.5128 14.35708795294985
ORBCOMM FM38            
1 33060U 08031A   24256.22934108  .00007356  00000+0  10210-2 0  9998
2 33060  48.4391 197.5286 0005398 287.7459  72.2866 14.78622430873576
ORBCOMM FM41            
1 33061U 08031B   24256.60072389  .00014136  00000+0  19465-2 0  9990
2 33061  48.4426 202.6874 0004573 274.9857 255.0545 14.78347670873127
ORBCOMM FM29            
1 33062U 08031C   24256.59368362  .00015194  00000+0  20910-2 0  9990
2 33062  48.4376 210.7487 0006394 273.6599 257.5762 14.78313670873035
ORBCOMM FM39            
1 33063U 08031D   24256.34598501  .00006420  00000+0  92569-3 0  9996
2 33063  48.4390 233.4395 0007328 248.8314 111.1817 14.77165005872681
